[
    {
        "Altitude(m)": 703251.1755340153,
        "Argument of Periapsis(deg)": 0.0,
        "Eccentricity": 0.0,
        "Inclination(deg)": 45.0,
        "Latitude(deg)": 22.545939802260893,
        "Longitude(deg)": 69.41908947940645,
        "Mean Anomaly(deg)": 32.727299999999985,
        "RAAN(deg)": 145.0,
        "Satellite Name": "Constellation 1 640",
        "Satellite Number": 640,
        "Semi-Major Axis(m)": 7083131.272910544,
        "Time(s)": 0
    },
    {
        "Altitude(m)": 703255.3033595122,
        "Argument of Periapsis(deg)": 5.994800624540561e-05,
        "Eccentricity": 0.0,
        "Inclination(deg)": 45.0,
        "Latitude(deg)": 22.58525101770556,
        "Longitude(deg)": 69.46520909934006,
        "Mean Anomaly(deg)": 32.7880011402499,
        "RAAN(deg)": 144.99994341083445,
        "Satellite Name": "Constellation 1 640",
        "Satellite Number": 640,
        "Semi-Major Axis(m)": 7083131.272910544,
        "Time(s)": 1
    },
    {
        "Altitude(m)": 703259.4429556127,
        "Argument of Periapsis(deg)": 0.00011989601249081122,
        "Eccentricity": 0.0,
        "Inclination(deg)": 45.0,
        "Latitude(deg)": 22.624546345133602,
        "Longitude(deg)": 69.51135722438184,
        "Mean Anomaly(deg)": 32.84870228049981,
        "RAAN(deg)": 144.99988682166887,
        "Satellite Name": "Constellation 1 640",
        "Satellite Number": 640,
        "Semi-Major Axis(m)": 7083131.272910544,
        "Time(s)": 2
    },
    {
        "Altitude(m)": 703263.5942876356,
        "Argument of Periapsis(deg)": 0.00017984401873621686,
        "Eccentricity": 0.0,
        "Inclination(deg)": 45.0,
        "Latitude(deg)": 22.663825745140418,
        "Longitude(deg)": 69.55753391431764,
        "Mean Anomaly(deg)": 32.9094034207497,
        "RAAN(deg)": 144.9998302325033,
        "Satellite Name": "Constellation 1 640",
        "Satellite Number": 640,
        "Semi-Major Axis(m)": 7083131.272910544,
        "Time(s)": 3
    },
    {
        "Altitude(m)": 703267.7573208574,
        "Argument of Periapsis(deg)": 0.00023979202498162244,
        "Eccentricity": 0.0,
        "Inclination(deg)": 45.0,
        "Latitude(deg)": 22.703089178265333,
        "Longitude(deg)": 69.6037392289532,
        "Mean Anomaly(deg)": 32.97010456099958,
        "RAAN(deg)": 144.99977364333773,
        "Satellite Name": "Constellation 1 640",
        "Satellite Number": 640,
        "Semi-Major Axis(m)": 7083131.272910544,
        "Time(s)": 4
    },
    {
        "Altitude(m)": 703271.9320205075,
        "Argument of Periapsis(deg)": 0.00029974003122702807,
        "Eccentricity": 0.0,
        "Inclination(deg)": 45.0,
        "Latitude(deg)": 22.742336604991127,
        "Longitude(deg)": 69.64997322811398,
        "Mean Anomaly(deg)": 33.03080570124949,
        "RAAN(deg)": 144.99971705417215,
        "Satellite Name": "Constellation 1 640",
        "Satellite Number": 640,
        "Semi-Major Axis(m)": 7083131.272910544,
        "Time(s)": 5
    },
    {
        "Altitude(m)": 703276.1183517912,
        "Argument of Periapsis(deg)": 0.00035968803747243373,
        "Eccentricity": 0.0,
        "Inclination(deg)": 45.0,
        "Latitude(deg)": 22.781567985744104,
        "Longitude(deg)": 69.69623597164485,
        "Mean Anomaly(deg)": 33.09150684149938,
        "RAAN(deg)": 144.9996604650066,
        "Satellite Name": "Constellation 1 640",
        "Satellite Number": 640,
        "Semi-Major Axis(m)": 7083131.272910544,
        "Time(s)": 6
    },
    {
        "Altitude(m)": 703280.3162798468,
        "Argument of Periapsis(deg)": 0.00041963604371783933,
        "Eccentricity": 0.0,
        "Inclination(deg)": 45.0,
        "Latitude(deg)": 22.820783280893874,
        "Longitude(deg)": 69.74252735131294,
        "Mean Anomaly(deg)": 33.15220798174929,
        "RAAN(deg)": 144.99960387584102,
        "Satellite Name": "Constellation 1 640",
        "Satellite Number": 640,
        "Semi-Major Axis(m)": 7083131.272910544,
        "Time(s)": 7
    },
    {
        "Altitude(m)": 703284.5257697946,
        "Argument of Periapsis(deg)": 0.0004795840499632449,
        "Eccentricity": 0.0,
        "Inclination(deg)": 45.0,
        "Latitude(deg)": 22.859982450753673,
        "Longitude(deg)": 69.78884776319593,
        "Mean Anomaly(deg)": 33.21290912199918,
        "RAAN(deg)": 144.99954728667547,
        "Satellite Name": "Constellation 1 640",
        "Satellite Number": 640,
        "Semi-Major Axis(m)": 7083131.272910544,
        "Time(s)": 8
    },
    {
        "Altitude(m)": 703288.7467867052,
        "Argument of Periapsis(deg)": 0.0005395320562086505,
        "Eccentricity": 0.0,
        "Inclination(deg)": 45.0,
        "Latitude(deg)": 22.899165455579553,
        "Longitude(deg)": 69.83519709909916,
        "Mean Anomaly(deg)": 33.27361026224909,
        "RAAN(deg)": 144.9994906975099,
        "Satellite Name": "Constellation 1 640",
        "Satellite Number": 640,
        "Semi-Major Axis(m)": 7083131.272910544,
        "Time(s)": 9
    },
    {
        "Altitude(m)": 703292.9792956035,
        "Argument of Periapsis(deg)": 0.0005994800624540561,
        "Eccentricity": 0.0,
        "Inclination(deg)": 45.0,
        "Latitude(deg)": 22.938332255570685,
        "Longitude(deg)": 69.88157541894368,
        "Mean Anomaly(deg)": 33.334311402499004,
        "RAAN(deg)": 144.9994341083443,
        "Satellite Name": "Constellation 1 640",
        "Satellite Number": 640,
        "Semi-Major Axis(m)": 7083131.272910544,
        "Time(s)": 10
    },
    {
        "Altitude(m)": 703297.2232614824,
        "Argument of Periapsis(deg)": 0.0006594280686994618,
        "Eccentricity": 0.0,
        "Inclination(deg)": 45.0,
        "Latitude(deg)": 22.97748281086921,
        "Longitude(deg)": 69.9279827826693,
        "Mean Anomaly(deg)": 33.39501254274889,
        "RAAN(deg)": 144.99937751917875,
        "Satellite Name": "Constellation 1 640",
        "Satellite Number": 640,
        "Semi-Major Axis(m)": 7083131.272910544,
        "Time(s)": 11
    },
    {
        "Altitude(m)": 703301.4786492897,
        "Argument of Periapsis(deg)": 0.0007193760749448675,
        "Eccentricity": 0.0,
        "Inclination(deg)": 45.0,
        "Latitude(deg)": 23.016617081560074,
        "Longitude(deg)": 69.97441925023415,
        "Mean Anomaly(deg)": 33.4557136829988,
        "RAAN(deg)": 144.99932093001317,
        "Satellite Name": "Constellation 1 640",
        "Satellite Number": 640,
        "Semi-Major Axis(m)": 7083131.272910544,
        "Time(s)": 12
    },
    {
        "Altitude(m)": 703305.745423933,
        "Argument of Periapsis(deg)": 0.000779324081190273,
        "Eccentricity": 0.0,
        "Inclination(deg)": 45.0,
        "Latitude(deg)": 23.055735027670977,
        "Longitude(deg)": 70.02088488161465,
        "Mean Anomaly(deg)": 33.51641482324869,
        "RAAN(deg)": 144.99926434084762,
        "Satellite Name": "Constellation 1 640",
        "Satellite Number": 640,
        "Semi-Major Axis(m)": 7083131.272910544,
        "Time(s)": 13
    },
    {
        "Altitude(m)": 703310.0235502858,
        "Argument of Periapsis(deg)": 0.0008392720874356787,
        "Eccentricity": 0.0,
        "Inclination(deg)": 45.0,
        "Latitude(deg)": 23.094836609172177,
        "Longitude(deg)": 70.06737973680518,
        "Mean Anomaly(deg)": 33.5771159634986,
        "RAAN(deg)": 144.99920775168206,
        "Satellite Name": "Constellation 1 640",
        "Satellite Number": 640,
        "Semi-Major Axis(m)": 7083131.272910544,
        "Time(s)": 14
    },
    {
        "Altitude(m)": 703314.3129931735,
        "Argument of Periapsis(deg)": 0.0008992200936810842,
        "Eccentricity": 0.0,
        "Inclination(deg)": 45.0,
        "Latitude(deg)": 23.13392178597633,
        "Longitude(deg)": 70.11390370772084,
        "Mean Anomaly(deg)": 33.63781710374849,
        "RAAN(deg)": 144.99915116251645,
        "Satellite Name": "Constellation 1 640",
        "Satellite Number": 640,
        "Semi-Major Axis(m)": 7083131.272910544,
        "Time(s)": 15
    },
    {
        "Altitude(m)": 703318.613717387,
        "Argument of Periapsis(deg)": 0.0009591680999264898,
        "Eccentricity": 0.0,
        "Inclination(deg)": 45.0,
        "Latitude(deg)": 23.17299051793886,
        "Longitude(deg)": 70.16045719058586,
        "Mean Anomaly(deg)": 33.6985182439984,
        "RAAN(deg)": 144.9990945733509,
        "Satellite Name": "Constellation 1 640",
        "Satellite Number": 640,
        "Semi-Major Axis(m)": 7083131.272910544,
        "Time(s)": 16
    },
    {
        "Altitude(m)": 703322.9256876734,
        "Argument of Periapsis(deg)": 0.0010191161061718953,
        "Eccentricity": 0.0,
        "Inclination(deg)": 45.0,
        "Latitude(deg)": 23.212042764857042,
        "Longitude(deg)": 70.2070400773504,
        "Mean Anomaly(deg)": 33.75921938424829,
        "RAAN(deg)": 144.99903798418532,
        "Satellite Name": "Constellation 1 640",
        "Satellite Number": 640,
        "Semi-Major Axis(m)": 7083131.272910544,
        "Time(s)": 17
    },
    {
        "Altitude(m)": 703327.2488687417,
        "Argument of Periapsis(deg)": 0.001079064112417301,
        "Eccentricity": 0.0,
        "Inclination(deg)": 45.0,
        "Latitude(deg)": 23.25107848647045,
        "Longitude(deg)": 70.25365242807894,
        "Mean Anomaly(deg)": 33.81992052449817,
        "RAAN(deg)": 144.99898139501977,
        "Satellite Name": "Constellation 1 640",
        "Satellite Number": 640,
        "Semi-Major Axis(m)": 7083131.272910544,
        "Time(s)": 18
    }
]